LEMUR-2-DEMBITZ         
1 42842U 17042T   26068.47492167  .00020231  00000+0  76561-3 0  9991
2 42842  97.3807 250.9241 0006961  17.1421 343.0051 15.26947128473114
STARLINK-32937          
1 63148U 25043S   26068.23576516  .00037573  00000+0  13678-2 0  9994
2 63148  43.0038  18.7338 0001382 274.4131  85.6562 15.27583177 57299
